[{"OBJECT_NAME":"COSMOS 2428","OBJECT_ID":"2007-029A","EPOCH":"2026-03-09T23:01:40.069056","MEAN_MOTION":14.1294624,"ECCENTRICITY":0.00091204,"INCLINATION":70.9433,"RA_OF_ASC_NODE":202.7763,"ARG_OF_PERICENTER":276.7113,"MEAN_ANOMALY":83.297,"EPHEMERIS_TYPE":0,"CLASSIFICATION_TYPE":"U","NORAD_CAT_ID":31792,"ELEMENT_SET_NO":999,"REV_AT_EPOCH":96413,"BSTAR":6.0875257e-5,"MEAN_MOTION_DOT":6.6e-7,"MEAN_MOTION_DDOT":0},{"OBJECT_NAME":"FENGYUN 1C DEB","OBJECT_ID":"1999-025BJQ","EPOCH":"2026-03-06T14:15:08.153568","MEAN_MOTION":14.13074976,"ECCENTRICITY":0.00250879,"INCLINATION":99.1801,"RA_OF_ASC_NODE":348.0526,"ARG_OF_PERICENTER":185.0857,"MEAN_ANOMALY":298.2646,"EPHEMERIS_TYPE":0,"CLASSIFICATION_TYPE":"U","NORAD_CAT_ID":31186,"ELEMENT_SET_NO":999,"REV_AT_EPOCH":97289,"BSTAR":0.000532699,"MEAN_MOTION_DOT":9.51e-6,"MEAN_MOTION_DDOT":0}]
